     2.100          NAVIGATION                              RINEX VERSION / TYPE
fic2rin                                 08/19/2012 00:13:22 PGM / RUN BY / DATE
                                                            END OF HEADER
11 12  8 18 14  0  0.0 -.293468590826D-03 -.397903932026D-11  .000000000000D+00
     .780000000000D+02 -.397187500000D+02  .557701801947D-08 -.246079014851D+01
    -.202283263206D-05  .133101064712D-01  .128373503685D-04  .515368873978D+04
     .568800000000D+06  .100582838058D-06 -.289046533315D+01 -.912696123123D-07
     .888747857310D+00  .900000000000D+02  .107540836884D+01 -.826534428477D-08
     .123576576032D-09  .100000000000D+01  .170100000000D+04  .000000000000D+00
     .240000000000D+01  .000000000000D+00 -.121071934700D-07  .780000000000D+02
     .561606000000D+06  .400000000000D+01
12 12  8 18 14  0  0.0  .860993750393D-04  .204636307899D-11  .000000000000D+00
     .680000000000D+02  .365312500000D+02  .456983320904D-08 -.295484735865D+01
     .179745256901D-05  .401438889094D-02  .220350921154D-05  .515373177528D+04
     .568800000000D+06 -.838190317154D-07  .160300120435D+01 -.428408384323D-07
     .980443973598D+00  .346031250000D+03  .137065044624D+00 -.828605943335D-08
     .123219418298D-09  .100000000000D+01  .170100000000D+04  .000000000000D+00
     .240000000000D+01  .000000000000D+00 -.121071934700D-07  .680000000000D+02
     .561606000000D+06  .400000000000D+01
13 12  8 18 14  0  0.0  .187153462321D-03 -.250111042988D-11  .000000000000D+00
     .100000000000D+02 -.632812500000D+02  .402516766439D-08 -.343528351118D+00
    -.358186662197D-05  .487279170193D-02  .943243503571D-05  .515362730217D+04
     .568800000000D+06 -.782310962677D-07 -.422922088540D+00 -.745058059692D-07
     .984926237560D+00  .210875000000D+03  .206867635985D+01 -.785925594098D-08
    -.445018536808D-09  .100000000000D+01  .170100000000D+04  .000000000000D+00
     .240000000000D+01  .000000000000D+00 -.111758708954D-07  .100000000000D+02
     .561606000000D+06  .400000000000D+01
14 12  8 18 14  0  0.0  .210352241993D-03  .113686837722D-11  .000000000000D+00
     .200000000000D+02 -.562187500000D+02  .424410535545D-08 -.806251516412D-01
    -.299885869026D-05  .670803547837D-02  .979565083981D-05  .515362659264D+04
     .568800000000D+06 -.242143869400D-07 -.450184353997D+00  .912696123123D-07
     .977699915252D+00  .203062500000D+03 -.206302864465D+01 -.799104714490D-08
    -.525021869268D-09  .100000000000D+01  .170100000000D+04  .000000000000D+00
     .240000000000D+01  .000000000000D+00 -.931322574615D-08  .200000000000D+02
     .561606000000D+06  .400000000000D+01
15 12  8 18 14  0  0.0 -.939150340855D-04 -.568434188608D-12  .000000000000D+00
     .640000000000D+02 -.648437500000D+02  .501128016851D-08 -.524355169589D+00
    -.337883830070D-05  .452390499413D-02  .846758484840D-05  .515360893631D+04
     .568800000000D+06  .670552253723D-07 -.540689204390D+00 -.745058059692D-08
     .944388340171D+00  .203812500000D+03  .386865774855D-01 -.835534803378D-08
    -.477162732886D-09  .100000000000D+01  .170100000000D+04  .000000000000D+00
     .240000000000D+01  .000000000000D+00 -.102445483208D-07  .640000000000D+02
     .561606000000D+06  .400000000000D+01
16 12  8 18 14  0  0.0 -.244008377194D-03 -.909494701773D-12  .000000000000D+00
     .720000000000D+02  .403437500000D+02  .465126517244D-08  .110174566630D+01
     .228174030781D-05  .654293340631D-02  .239163637161D-05  .515372182083D+04
     .568800000000D+06  .409781932831D-07  .162121684731D+01  .204890966415D-07
     .981242077334D+00  .339562500000D+03  .287502842847D-01 -.842499379195D-08
     .592881838766D-10  .100000000000D+01  .170100000000D+04  .000000000000D+00
     .240000000000D+01  .000000000000D+00 -.977888703346D-08  .720000000000D+02
     .561606000000D+06  .400000000000D+01
17 12  8 18 14  0  0.0  .104029662907D-03 -.318323145621D-11  .000000000000D+00
     .930000000000D+02 -.105250000000D+03  .454697511405D-08  .183536950285D+00
    -.544451177120D-05  .746691040695D-02  .772811472416D-05  .515373052979D+04
     .568800000000D+06 -.335276126862D-07  .266128712502D+01  .100582838058D-06
     .963718834963D+00  .233062500000D+03 -.229499830675D+01 -.830070290045D-08
    -.557523223080D-09  .100000000000D+01  .170100000000D+04  .000000000000D+00
     .240000000000D+01  .000000000000D+00 -.107102096081D-07  .930000000000D+02
     .561606000000D+06  .400000000000D+01
18 12  8 18 14  0  0.0  .210682861507D-03  .181898940355D-11  .000000000000D+00
     .470000000000D+02  .338125000000D+02  .574273920814D-08  .164498106644D+01
     .164844095707D-05  .136386369122D-01  .379048287868D-05  .515371143532D+04
     .568800000000D+06 -.301748514175D-06 -.155755814264D+01 -.145286321640D-06
     .928651041358D+00  .289500000000D+03 -.215063205743D+01 -.891572851874D-08
     .265011038773D-09  .100000000000D+01  .170100000000D+04  .000000000000D+00
     .240000000000D+01  .000000000000D+00 -.107102096081D-07  .470000000000D+02
     .561606000000D+06  .400000000000D+01
19 12  8 18 14  0  0.0 -.295494683087D-03 -.352429196937D-11  .000000000000D+00
     .230000000000D+02 -.113656250000D+03  .452947438507D-08 -.643037036411D+00
    -.599212944508D-05  .857094675303D-02  .816397368908D-05  .515361437225D+04
     .568800000000D+06  .251457095146D-06  .271407172700D+01 -.186264514923D-07
     .961102635657D+00  .223093750000D+03  .228522793040D+00 -.823069998455D-08
    -.608953936804D-09  .100000000000D+01  .170100000000D+04  .000000000000D+00
     .240000000000D+01  .000000000000D+00 -.149011611938D-07  .230000000000D+02
     .561606000000D+06  .400000000000D+01
20 12  8 18 14  0  0.0  .664852559566D-04  .682121026330D-12  .000000000000D+00
     .620000000000D+02  .467187500000D+02  .555987444823D-08  .206728827588D+01
     .239536166191D-05  .494652218185D-02  .406429171562D-05  .515364357376D+04
     .568800000000D+06  .260770320892D-07 -.161125520613D+01 -.108033418655D-06
     .929203118845D+00  .282875000000D+03  .127834520743D+01 -.871250576798D-08
     .407874132452D-09  .100000000000D+01  .170100000000D+04  .000000000000D+00
     .240000000000D+01  .000000000000D+00 -.791624188423D-08  .620000000000D+02
     .561606000000D+06  .400000000000D+01
21 12  8 18 14  0  0.0 -.243974383920D-03 -.250111042988D-11  .000000000000D+00
     .530000000000D+02  .269375000000D+02  .466912305915D-08  .279117299718D+01
     .122562050819D-05  .193150334526D-01  .131092965603D-04  .515358839798D+04
     .568800000000D+06  .558793544769D-07 -.260782650713D+01 -.189989805222D-06
     .931768579764D+00  .105687500000D+03 -.222633211981D+01 -.778103839720D-08
     .367872466222D-09  .100000000000D+01  .170100000000D+04  .000000000000D+00
     .240000000000D+01  .000000000000D+00 -.111758708954D-07  .530000000000D+02
     .561606000000D+06  .400000000000D+01
23 12  8 18 14  0  0.0  .173795036972D-03 -.397903932026D-11  .000000000000D+00
     .770000000000D+02 -.685937500000D+02  .465840832712D-08 -.104435559047D+01
    -.370480120182D-05  .821737828664D-02  .810623168945D-05  .515359293175D+04
     .568800000000D+06  .145286321640D-06 -.503756376024D+00 -.154599547386D-06
     .959216028706D+00  .217781250000D+03 -.295309854541D+01 -.816391148825D-08
    -.421803284086D-09  .100000000000D+01  .170100000000D+04  .000000000000D+00
     .240000000000D+01  .000000000000D+00 -.200234353542D-07  .770000000000D+02
     .561606000000D+06  .400000000000D+01
25 12  8 18 14  0  0.0  .400780700147D-04  .102318153949D-11  .000000000000D+00
     .120000000000D+02  .459062500000D+02  .487556022951D-08  .211601120431D+01
     .234134495258D-05  .182577152736D-02  .229105353355D-05  .515366664696D+04
     .568800000000D+06 -.614672899246D-07  .156795273735D+01 -.521540641785D-07
     .969300651560D+00  .339125000000D+03  .783354544375D+00 -.847642450568D-08
     .213580325049D-09  .100000000000D+01  .170100000000D+04  .000000000000D+00
     .240000000000D+01  .000000000000D+00  .512227416039D-08  .120000000000D+02
     .561606000000D+06  .400000000000D+01
26 12  8 18 14  0  0.0 -.310718547553D-03  .125055521494D-10  .000000000000D+00
     .110000000000D+02 -.511562500000D+02  .410124226177D-08 -.118061653339D+01
    -.226683914661D-05  .207766862586D-01  .959634780884D-05  .515366426277D+04
     .568800000000D+06  .108033418655D-06 -.429264435284D+00  .517815351486D-06
     .982438031882D+00  .205875000000D+03  .120482351346D+01 -.791068665471D-08
    -.492163357722D-09  .100000000000D+01  .170100000000D+04  .000000000000D+00
     .240000000000D+01  .000000000000D+00 -.605359673500D-08  .110000000000D+02
     .561606000000D+06  .400000000000D+01
27 12  8 18 14  0  0.0  .421519856900D-03  .420641299570D-11  .000000000000D+00
     .760000000000D+02  .708437500000D+02  .403373945001D-08 -.349889442231D+00
     .352412462234D-05  .217415502993D-01  .118073076010D-04  .515369490623D+04
     .568800000000D+06 -.312924385071D-06  .493858115767D+00 -.234693288803D-06
     .982291077372D+00  .171750000000D+03 -.104600005668D+01 -.800640492747D-08
     .341085636157D-09  .100000000000D+01  .170100000000D+04  .000000000000D+00
     .240000000000D+01  .000000000000D+00 -.419095158577D-08  .760000000000D+02
     .561606000000D+06  .400000000000D+01
28 12  8 18 14  0  0.0  .176460947841D-03  .386535248253D-11  .000000000000D+00
     .510000000000D+02  .345625000000D+02  .472983987396D-08  .811610622749D+00
     .181980431080D-05  .179806336528D-01  .287778675556D-05  .515362827492D+04
     .568800000000D+06 -.242143869400D-06  .162784123734D+01  .931322574615D-07
     .979619704110D+00  .340000000000D+03 -.182248065768D+01 -.873000649695D-08
     .532165023952D-10  .100000000000D+01  .170100000000D+04  .000000000000D+00
     .240000000000D+01  .000000000000D+00 -.107102096081D-07  .510000000000D+02
     .561606000000D+06  .400000000000D+01
